{
  "type": "FeatureCollection",
  "features": [
    {
      "type": "Feature",
      "properties": {
        "norad_id": 31005,
        "name": "FENGYUN 1C DEB",
        "group": "fengyun-1c-debris",
        "lat": -69.13909017687384,
        "lon": -74.08213026800438,
        "alt_km": 869.6019311245009,
        "timestamp": "2025-12-22T09:53:37.681462+00:00",
        "meta_object_name": "FENGYUN 1C DEB",
        "meta_object_id": "1999-025BCX",
        "meta_epoch": "2025-12-19T20:39:31.442112",
        "meta_mean_motion": 13.83298695,
        "meta_eccentricity": 0.0180827,
        "meta_inclination": 98.6131,
        "meta_ra_of_asc_node": 127.0159,
        "meta_arg_of_pericenter": 305.9328,
        "meta_mean_anomaly": 207.4359,
        "meta_ephemeris_type": 0,
        "meta_classification_type": "U",
        "meta_norad_cat_id": 31005,
        "meta_element_set_no": 999,
        "meta_rev_at_epoch": 94379,
        "meta_bstar": 0.00095824,
        "meta_mean_motion_dot": 1.153e-05,
        "meta_mean_motion_ddot": 0,
        "tle_line1": "1 31005U 99025BCX 25353.86078058  .00001153  00000+0  95824-3 0  9994",
        "tle_line2": "2 31005  98.6131 127.0159 0180827 305.9328 207.4359 13.83298695943796"
      },
      "geometry": {
        "type": "Point",
        "coordinates": [
          -74.08213026800438,
          -69.13909017687384
        ]
      }
    },
    {
      "type": "Feature",
      "properties": {
        "norad_id": 31007,
        "name": "FENGYUN 1C DEB",
        "group": "fengyun-1c-debris",
        "lat": 61.64943759264347,
        "lon": -27.320208658161988,
        "alt_km": 663.3748433453338,
        "timestamp": "2025-12-22T09:53:37.681472+00:00",
        "meta_object_name": "FENGYUN 1C DEB",
        "meta_object_id": "1999-025BCZ",
        "meta_epoch": "2025-12-21T22:05:15.672192",
        "meta_mean_motion": 14.58817222,
        "meta_eccentricity": 0.0066706,
        "meta_inclination": 98.0877,
        "meta_ra_of_asc_node": 347.4804,
        "meta_arg_of_pericenter": 9.7713,
        "meta_mean_anomaly": 350.4767,
        "meta_ephemeris_type": 0,
        "meta_classification_type": "U",
        "meta_norad_cat_id": 31007,
        "meta_element_set_no": 999,
        "meta_rev_at_epoch": 98228,
        "meta_bstar": 0.0022534,
        "meta_mean_motion_dot": 0.00010834,
        "meta_mean_motion_ddot": 0,
        "tle_line1": "1 31007U 99025BCZ 25355.92032028  .00010834  00000+0  22534-2 0  9995",
        "tle_line2": "2 31007  98.0877 347.4804 0066706   9.7713 350.4767 14.58817222982285"
      },
      "geometry": {
        "type": "Point",
        "coordinates": [
          -27.320208658161988,
          61.64943759264347
        ]
      }
    },
    {
      "type": "Feature",
      "properties": {
        "norad_id": 31009,
        "name": "FENGYUN 1C DEB",
        "group": "fengyun-1c-debris",
        "lat": 75.21015821205108,
        "lon": -151.63654341204375,
        "alt_km": 897.2094639037359,
        "timestamp": "2025-12-22T09:53:37.681484+00:00",
        "meta_object_name": "FENGYUN 1C DEB",
        "meta_object_id": "1999-025BDB",
        "meta_epoch": "2025-12-19T23:23:03.642144",
        "meta_mean_motion": 14.00366441,
        "meta_eccentricity": 0.0053012,
        "meta_inclination": 98.8966,
        "meta_ra_of_asc_node": 349.603,
        "meta_arg_of_pericenter": 216.8042,
        "meta_mean_anomaly": 202.1683,
        "meta_ephemeris_type": 0,
        "meta_classification_type": "U",
        "meta_norad_cat_id": 31009,
        "meta_element_set_no": 999,
        "meta_rev_at_epoch": 95962,
        "meta_bstar": 3.4041e-05,
        "meta_mean_motion_dot": 8e-08,
        "meta_mean_motion_ddot": 0,
        "tle_line1": "1 31009U 99025BDB 25353.97434771  .00000008  00000+0  34041-4 0  9991",
        "tle_line2": "2 31009  98.8966 349.6030 0053012 216.8042 202.1683 14.00366441959622"
      },
      "geometry": {
        "type": "Point",
        "coordinates": [
          -151.63654341204375,
          75.21015821205108
        ]
      }
    },
    {
      "type": "Feature",
      "properties": {
        "norad_id": 31010,
        "name": "FENGYUN 1C DEB",
        "group": "fengyun-1c-debris",
        "lat": -25.512341138131703,
        "lon": 152.3300830907452,
        "alt_km": 729.5366148726034,
        "timestamp": "2025-12-22T09:53:37.681494+00:00",
        "meta_object_name": "FENGYUN 1C DEB",
        "meta_object_id": "1999-025BDC",
        "meta_epoch": "2025-12-21T15:29:23.505216",
        "meta_mean_motion": 14.25926133,
        "meta_eccentricity": 0.0113533,
        "meta_inclination": 101.7249,
        "meta_ra_of_asc_node": 145.6192,
        "meta_arg_of_pericenter": 331.1393,
        "meta_mean_anomaly": 28.3526,
        "meta_ephemeris_type": 0,
        "meta_classification_type": "U",
        "meta_norad_cat_id": 31010,
        "meta_element_set_no": 999,
        "meta_rev_at_epoch": 95756,
        "meta_bstar": 0.0025084,
        "meta_mean_motion_dot": 6.333e-05,
        "meta_mean_motion_ddot": 0,
        "tle_line1": "1 31010U 99025BDC 25355.64541094  .00006333  00000+0  25084-2 0  9998",
        "tle_line2": "2 31010 101.7249 145.6192 0113533 331.1393  28.3526 14.25926133957562"
      },
      "geometry": {
        "type": "Point",
        "coordinates": [
          152.3300830907452,
          -25.512341138131703
        ]
      }
    },
    {
      "type": "Feature",
      "properties": {
        "norad_id": 31012,
        "name": "FENGYUN 1C DEB",
        "group": "fengyun-1c-debris",
        "lat": 36.94301838196506,
        "lon": 81.48231007849222,
        "alt_km": 786.2042295391811,
        "timestamp": "2025-12-22T09:53:37.681506+00:00",
        "meta_object_name": "FENGYUN 1C DEB",
        "meta_object_id": "1999-025BDE",
        "meta_epoch": "2025-12-20T05:41:42.187776",
        "meta_mean_motion": 14.27869509,
        "meta_eccentricity": 0.0081451,
        "meta_inclination": 98.9115,
        "meta_ra_of_asc_node": 252.4881,
        "meta_arg_of_pericenter": 229.3893,
        "meta_mean_anomaly": 260.3237,
        "meta_ephemeris_type": 0,
        "meta_classification_type": "U",
        "meta_norad_cat_id": 31012,
        "meta_element_set_no": 999,
        "meta_rev_at_epoch": 97854,
        "meta_bstar": 0.00013145,
        "meta_mean_motion_dot": 2.9e-06,
        "meta_mean_motion_ddot": 0,
        "tle_line1": "1 31012U 99025BDE 25354.23729384  .00000290  00000+0  13145-3 0  9996",
        "tle_line2": "2 31012  98.9115 252.4881 0081451 229.3893 260.3237 14.27869509978544"
      },
      "geometry": {
        "type": "Point",
        "coordinates": [
          81.48231007849222,
          36.94301838196506
        ]
      }
    },
    {
      "type": "Feature",
      "properties": {
        "norad_id": 31014,
        "name": "FENGYUN 1C DEB",
        "group": "fengyun-1c-debris",
        "lat": 78.39720310327084,
        "lon": -158.78827739621772,
        "alt_km": 868.4368740909695,
        "timestamp": "2025-12-22T09:53:37.681516+00:00",
        "meta_object_name": "FENGYUN 1C DEB",
        "meta_object_id": "1999-025BDG",
        "meta_epoch": "2025-12-21T21:32:52.747872",
        "meta_mean_motion": 13.98493534,
        "meta_eccentricity": 0.0088324,
        "meta_inclination": 98.8694,
        "meta_ra_of_asc_node": 331.2063,
        "meta_arg_of_pericenter": 168.2006,
        "meta_mean_anomaly": 221.8264,
        "meta_ephemeris_type": 0,
        "meta_classification_type": "U",
        "meta_norad_cat_id": 31014,
        "meta_element_set_no": 999,
        "meta_rev_at_epoch": 95964,
        "meta_bstar": -6.4447e-05,
        "meta_mean_motion_dot": -1.38e-06,
        "meta_mean_motion_ddot": 0,
        "tle_line1": "1 31014U 99025BDG 25355.89783273 -.00000138  00000+0 -64447-4 0  9993",
        "tle_line2": "2 31014  98.8694 331.2063 0088324 168.2006 221.8264 13.98493534959648"
      },
      "geometry": {
        "type": "Point",
        "coordinates": [
          -158.78827739621772,
          78.39720310327084
        ]
      }
    },
    {
      "type": "Feature",
      "properties": {
        "norad_id": 31016,
        "name": "FENGYUN 1C DEB",
        "group": "fengyun-1c-debris",
        "lat": -63.603879807902345,
        "lon": 174.552210886291,
        "alt_km": 716.912096400868,
        "timestamp": "2025-12-22T09:53:37.681526+00:00",
        "meta_object_name": "FENGYUN 1C DEB",
        "meta_object_id": "1999-025BDJ",
        "meta_epoch": "2025-12-19T00:18:24.276672",
        "meta_mean_motion": 14.30504416,
        "meta_eccentricity": 0.01120117,
        "meta_inclination": 98.4358,
        "meta_ra_of_asc_node": 8.6522,
        "meta_arg_of_pericenter": 255.4442,
        "meta_mean_anomaly": 132.8317,
        "meta_ephemeris_type": 0,
        "meta_classification_type": "U",
        "meta_norad_cat_id": 31016,
        "meta_element_set_no": 999,
        "meta_rev_at_epoch": 97560,
        "meta_bstar": 0.00022139429,
        "meta_mean_motion_dot": 5.73e-06,
        "meta_mean_motion_ddot": 0,
        "tle_line1": "1 31016U 99025BDJ 25353.01278098  .00000573  00000+0  22139-3 0  9993",
        "tle_line2": "2 31016  98.4358   8.6522 0112011 255.4442 132.8317 14.30504416975605"
      },
      "geometry": {
        "type": "Point",
        "coordinates": [
          174.552210886291,
          -63.603879807902345
        ]
      }
    }
  ]
}